{
 "generated_at": "2026-06-21T08:57:48Z",
 "sources": [
  {
   "name": "CelesTrak",
   "url": "https://celestrak.org/NORAD/elements/",
   "license": "frei verfügbar; Attribution. Ursprünglich USSPACECOM/Space-Track."
  },
  {
   "name": "GCAT (J. McDowell, planet4589.org)",
   "url": "https://planet4589.org/space/gcat/",
   "license": "CC-BY 4.0"
  }
 ],
 "satellites": [
  {
   "norad": 39766,
   "name": "ALOS-2",
   "intl": "2014-029A",
   "group": "resource",
   "gcat": {
    "class": "C",
    "category": "IMG",
    "owner": "JAXA",
    "state": "J"
   },
   "omm": {
    "OBJECT_NAME": "ALOS-2",
    "OBJECT_ID": "2014-029A",
    "EPOCH": "2026-06-21T04:43:52.790592",
    "MEAN_MOTION": 14.79466436,
    "ECCENTRICITY": 0.0001621,
    "INCLINATION": 97.9219,
    "RA_OF_ASC_NODE": 269.3033,
    "ARG_OF_PERICENTER": 92.8155,
    "MEAN_ANOMALY": 267.3242,
    "EPHEMERIS_TYPE": 0,
    "CLASSIFICATION_TYPE": "U",
    "NORAD_CAT_ID": 39766,
    "ELEMENT_SET_NO": 999,
    "REV_AT_EPOCH": 65217,
    "BSTAR": 0.00012234,
    "MEAN_MOTION_DOT": 0.00000862,
    "MEAN_MOTION_DDOT": 0
   }
  },
  {
   "norad": 60182,
   "name": "ALOS-4 (DAICHI-4)",
   "intl": "2024-123A",
   "group": "resource",
   "gcat": {
    "class": "C",
    "category": "IMG",
    "owner": "JAXA",
    "state": "J"
   },
   "omm": {
    "OBJECT_NAME": "ALOS-4 (DAICHI-4)",
    "OBJECT_ID": "2024-123A",
    "EPOCH": "2026-06-21T05:11:44.698848",
    "MEAN_MOTION": 14.79475637,
    "ECCENTRICITY": 0.0001631,
    "INCLINATION": 97.9248,
    "RA_OF_ASC_NODE": 269.3339,
    "ARG_OF_PERICENTER": 96.5969,
    "MEAN_ANOMALY": 263.5428,
    "EPHEMERIS_TYPE": 0,
    "CLASSIFICATION_TYPE": "U",
    "NORAD_CAT_ID": 60182,
    "ELEMENT_SET_NO": 999,
    "REV_AT_EPOCH": 10647,
    "BSTAR": 0.0001409,
    "MEAN_MOTION_DOT": 0.00001001,
    "MEAN_MOTION_DDOT": 0
   }
  },
  {
   "norad": 41785,
   "name": "ALSAT-1B",
   "intl": "2016-059C",
   "group": "resource",
   "gcat": {
    "class": "C",
    "category": "IMG",
    "owner": "ASAL",
    "state": "DZ"
   },
   "omm": {
    "OBJECT_NAME": "ALSAT-1B",
    "OBJECT_ID": "2016-059C",
    "EPOCH": "2026-06-21T04:22:09.474240",
    "MEAN_MOTION": 14.72276343,
    "ECCENTRICITY": 0.0008435,
    "INCLINATION": 97.775,
    "RA_OF_ASC_NODE": 180.7737,
    "ARG_OF_PERICENTER": 205.3977,
    "MEAN_ANOMALY": 154.6817,
    "EPHEMERIS_TYPE": 0,
    "CLASSIFICATION_TYPE": "U",
    "NORAD_CAT_ID": 41785,
    "ELEMENT_SET_NO": 999,
    "REV_AT_EPOCH": 52116,
    "BSTAR": 0.000019799,
    "MEAN_MOTION_DOT": 7.8e-7,
    "MEAN_MOTION_DDOT": 0
   }
  },
  {
   "norad": 27424,
   "name": "AQUA",
   "intl": "2002-022A",
   "group": "resource",
   "gcat": {
    "class": "C",
    "category": "IMG",
    "owner": "GSFC",
    "state": "US"
   },
   "omm": {
    "OBJECT_NAME": "AQUA",
    "OBJECT_ID": "2002-022A",
    "EPOCH": "2026-06-20T10:11:34.436832",
    "MEAN_MOTION": 14.62162126,
    "ECCENTRICITY": 0.0000982,
    "INCLINATION": 98.4278,
    "RA_OF_ASC_NODE": 140.7722,
    "ARG_OF_PERICENTER": 55.9702,
    "MEAN_ANOMALY": 96.4678,
    "EPHEMERIS_TYPE": 0,
    "CLASSIFICATION_TYPE": "U",
    "NORAD_CAT_ID": 27424,
    "ELEMENT_SET_NO": 999,
    "REV_AT_EPOCH": 28374,
    "BSTAR": 0.00012157,
    "MEAN_MOTION_DOT": 0.00000562,
    "MEAN_MOTION_DDOT": 0
   }
  },
  {
   "norad": 29268,
   "name": "ARIRANG-2 (KOMPSAT-2)",
   "intl": "2006-031A",
   "group": "resource",
   "gcat": {
    "class": "C",
    "category": "IMG",
    "owner": "KARI",
    "state": "KR"
   },
   "omm": {
    "OBJECT_NAME": "ARIRANG-2 (KOMPSAT-2)",
    "OBJECT_ID": "2006-031A",
    "EPOCH": "2026-06-21T04:36:55.518336",
    "MEAN_MOTION": 14.64661985,
    "ECCENTRICITY": 0.0015834,
    "INCLINATION": 97.8311,
    "RA_OF_ASC_NODE": 356.4445,
    "ARG_OF_PERICENTER": 63.083,
    "MEAN_ANOMALY": 26.6564,
    "EPHEMERIS_TYPE": 0,
    "CLASSIFICATION_TYPE": "U",
    "NORAD_CAT_ID": 29268,
    "ELEMENT_SET_NO": 999,
    "REV_AT_EPOCH": 6206,
    "BSTAR": 0.000049147,
    "MEAN_MOTION_DOT": 0.00000217,
    "MEAN_MOTION_DDOT": 0
   }
  },
  {
   "norad": 38338,
   "name": "ARIRANG-3 (KOMPSAT-3)",
   "intl": "2012-025B",
   "group": "resource",
   "gcat": {
    "class": "C",
    "category": "IMG",
    "owner": "KARI",
    "state": "KR"
   },
   "omm": {
    "OBJECT_NAME": "ARIRANG-3 (KOMPSAT-3)",
    "OBJECT_ID": "2012-025B",
    "EPOCH": "2026-06-21T03:19:30.050400",
    "MEAN_MOTION": 14.6220895,
    "ECCENTRICITY": 0.0006781,
    "INCLINATION": 98.1172,
    "RA_OF_ASC_NODE": 129.5303,
    "ARG_OF_PERICENTER": 99.5702,
    "MEAN_ANOMALY": 260.6266,
    "EPHEMERIS_TYPE": 0,
    "CLASSIFICATION_TYPE": "U",
    "NORAD_CAT_ID": 38338,
    "ELEMENT_SET_NO": 999,
    "REV_AT_EPOCH": 75192,
    "BSTAR": 0.000068691,
    "MEAN_MOTION_DOT": 0.00000299,
    "MEAN_MOTION_DDOT": 0
   }
  },
  {
   "norad": 39227,
   "name": "ARIRANG-5 (KOMPSAT-5)",
   "intl": "2013-042A",
   "group": "resource",
   "gcat": {
    "class": "C",
    "category": "IMG-R",
    "owner": "KARI",
    "state": "KR"
   },
   "omm": {
    "OBJECT_NAME": "ARIRANG-5 (KOMPSAT-5)",
    "OBJECT_ID": "2013-042A",
    "EPOCH": "2026-06-21T03:45:35.138016",
    "MEAN_MOTION": 15.04494959,
    "ECCENTRICITY": 0.0005367,
    "INCLINATION": 97.6201,
    "RA_OF_ASC_NODE": 358.8013,
    "ARG_OF_PERICENTER": 111.6189,
    "MEAN_ANOMALY": 248.5609,
    "EPHEMERIS_TYPE": 0,
    "CLASSIFICATION_TYPE": "U",
    "NORAD_CAT_ID": 39227,
    "ELEMENT_SET_NO": 999,
    "REV_AT_EPOCH": 70445,
    "BSTAR": 0.00001473,
    "MEAN_MOTION_DOT": 0.00000146,
    "MEAN_MOTION_DDOT": 0
   }
  },
  {
   "norad": 47719,
   "name": "ARKTIKA-M 1",
   "intl": "2021-016A",
   "group": "weather",
   "gcat": {
    "class": "C",
    "category": "MET",
    "owner": "ROSK",
    "state": "RU"
   },
   "omm": {
    "OBJECT_NAME": "ARKTIKA-M 1",
    "OBJECT_ID": "2021-016A",
    "EPOCH": "2026-06-17T11:46:36.471360",
    "MEAN_MOTION": 2.00622504,
    "ECCENTRICITY": 0.72885287,
    "INCLINATION": 63.2922,
    "RA_OF_ASC_NODE": 57.5948,
    "ARG_OF_PERICENTER": 269.942,
    "MEAN_ANOMALY": 14.6012,
    "EPHEMERIS_TYPE": 0,
    "CLASSIFICATION_TYPE": "U",
    "NORAD_CAT_ID": 47719,
    "ELEMENT_SET_NO": 999,
    "REV_AT_EPOCH": 3879,
    "BSTAR": 0,
    "MEAN_MOTION_DOT": -0.0000021,
    "MEAN_MOTION_DDOT": 0
   }
  },
  {
   "norad": 58584,
   "name": "ARKTIKA-M 2",
   "intl": "2023-198A",
   "group": "weather",
   "gcat": {
    "class": "C",
    "category": "MET",
    "owner": "ROSK",
    "state": "RU"
   },
   "omm": {
    "OBJECT_NAME": "ARKTIKA-M 2",
    "OBJECT_ID": "2023-198A",
    "EPOCH": "2026-06-17T18:13:15.259296",
    "MEAN_MOTION": 2.00612717,
    "ECCENTRICITY": 0.69023443,
    "INCLINATION": 63.2243,
    "RA_OF_ASC_NODE": 154.292,
    "ARG_OF_PERICENTER": 267.4286,
    "MEAN_ANOMALY": 18.7609,
    "EPHEMERIS_TYPE": 0,
    "CLASSIFICATION_TYPE": "U",
    "NORAD_CAT_ID": 58584,
    "ELEMENT_SET_NO": 999,
    "REV_AT_EPOCH": 1833,
    "BSTAR": 0,
    "MEAN_MOTION_DOT": 0.00000145,
    "MEAN_MOTION_DDOT": 0
   }
  },
  {
   "norad": 40298,
   "name": "ASNARO",
   "intl": "2014-070A",
   "group": "resource",
   "gcat": {
    "class": null,
    "category": "IMG",
    "owner": "JSS",
    "state": "J"
   },
   "omm": {
    "OBJECT_NAME": "ASNARO",
    "OBJECT_ID": "2014-070A",
    "EPOCH": "2026-06-21T04:14:05.318016",
    "MEAN_MOTION": 15.19480292,
    "ECCENTRICITY": 0.0006061,
    "INCLINATION": 97.3444,
    "RA_OF_ASC_NODE": 248.1829,
    "ARG_OF_PERICENTER": 153.3263,
    "MEAN_ANOMALY": 206.8285,
    "EPHEMERIS_TYPE": 0,
    "CLASSIFICATION_TYPE": "U",
    "NORAD_CAT_ID": 40298,
    "ELEMENT_SET_NO": 999,
    "REV_AT_EPOCH": 64461,
    "BSTAR": 0.00020546,
    "MEAN_MOTION_DOT": 0.00004294,
    "MEAN_MOTION_DDOT": 0
   }
  }
 ]
}
